NORAD_CAT_ID,OBJECT_NAME,OBJECT_TYPE,EPOCH,MEAN_MOTION,ECCENTRICITY,INCLINATION,RA_OF_ASC_NODE,ARG_OF_PERICENTER,MEAN_ANOMALY,BSTAR,MEAN_MOTION_DOT,MEAN_MOTION_DDOT,TLE_LINE0,TLE_LINE1,TLE_LINE2,SEMIMAJOR_AXIS,PERIOD,APOGEE,PERIGEE,DECAYED
53864.0,STARLINK-4779,PAYLOAD,2023-05-15 13:19:17,15.08845522,6.71e-05,53.217,223.6508,66.9227,293.1836,4.7521e-05,4.69e-06,0.0,0 STARLINK-4779,1 53864U 22114AY  23135.55506164  .00000469  00000-0  47521-4 0  9994,2 53864  53.2170 223.6508 0000671  66.9227 293.1836 15.08845522 37213,6917.864,95.437,540.193,539.264,0.0
53864.0,STARLINK-4779,PAYLOAD,2023-05-15 14:54:40,15.08845161,7.86e-05,53.2164,223.3533,69.5024,290.6053,6.2749e-05,7.11e-06,0.0,0 STARLINK-4779,1 53864U 22114AY  23135.62129983  .00000711  00000-0  62749-4 0  9991,2 53864  53.2164 223.3533 0000786  69.5024 290.6053 15.08845161 37764,6917.865,95.437,540.273,539.186,0.0
53864.0,STARLINK-4779,PAYLOAD,2023-05-16 13:10:04,15.08838727,8.91e-05,53.2171,219.1895,76.899,283.2102,5.6042e-05,6.04e-06,0.0,0 STARLINK-4779,1 53864U 22114AY  23136.54866520  .00000604  00000-0  56042-4 0  9998,2 53864  53.2171 219.1895 0000891  76.8990 283.2102 15.08838727 37365,6917.884,95.438,540.366,539.133,0.0
53864.0,STARLINK-4779,PAYLOAD,2023-05-16 14:45:27,15.08840936,7.99e-05,53.2168,218.8913,80.669,279.4393,8.4067e-05,1.051e-05,0.0,0 STARLINK-4779,1 53864U 22114AY  23136.61490352  .00001051  00000-0  84067-4 0  9997,2 53864  53.2168 218.8913 0000799  80.6690 279.4393 15.08840936 37910,6917.878,95.437,540.295,539.19,0.0
53864.0,STARLINK-4779,PAYLOAD,2023-05-17 11:25:28,15.0884712,7.98e-05,53.217,215.0288,80.8561,279.2522,7.8642e-05,9.64e-06,0.0,0 STARLINK-4779,1 53864U 22114AY  23137.47602031  .00000964  00000-0  78642-4 0  9995,2 53864  53.2170 215.0288 0000798  80.8561 279.2522 15.08847120 37504,6917.859,95.437,540.276,539.172,0.0
53864.0,STARLINK-4779,PAYLOAD,2023-05-18 11:16:15,15.08837462,7.52e-05,53.2165,210.5696,72.0857,288.0217,-3.2671e-06,-3.4e-06,0.0,0 STARLINK-4779,1 53864U 22114AY  23138.46962713 -.00000340  00000-0 -32671-5 0  9994,2 53864  53.2165 210.5696 0000752  72.0857 288.0217 15.08837462 37655,6917.888,95.438,540.273,539.233,0.0
53864.0,STARLINK-4779,PAYLOAD,2023-05-18 22:23:57,15.08837746,6.39e-05,53.2155,208.4863,80.3172,279.7893,-4.4762e-06,-3.59e-06,0.0,0 STARLINK-4779,1 53864U 22114AY  23138.93330612 -.00000359  00000-0 -44762-5 0  9997,2 53864  53.2155 208.4863 0000639  80.3172 279.7893 15.08837746 38262,6917.887,95.438,540.194,539.31,0.0
53864.0,STARLINK-4779,PAYLOAD,2023-05-19 14:17:48,15.08841034,5.94e-05,53.2155,205.5114,100.4128,259.6931,-3.0081e-06,-3.35e-06,0.0,0 STARLINK-4779,1 53864U 22114AY  23139.59570343 -.00000335  00000-0 -30081-5 0  9990,2 53864  53.2155 205.5114 0000594 100.4128 259.6931 15.08841034 37820,6917.877,95.437,540.153,539.331,0.0
53864.0,STARLINK-4779,PAYLOAD,2023-05-20 10:57:48,15.08846358,6.72e-05,53.2157,201.646,77.6548,282.4519,0.00014676,2.049e-05,0.0,0 STARLINK-4779,1 53864U 22114AY  23140.45681691  .00002049  00000-0  14676-3 0  9998,2 53864  53.2157 201.6460 0000672  77.6548 282.4519 15.08846358 37955,6917.861,95.437,540.191,539.261,0.0
53864.0,STARLINK-4779,PAYLOAD,2023-05-20 20:30:07,15.08846585,7.21e-05,53.2159,199.8619,72.2496,287.8574,0.00011236,1.501e-05,0.0,0 STARLINK-4779,1 53864U 22114AY  23140.85425667  .00001501  00000-0  11236-3 0  9992,2 53864  53.2159 199.8619 0000721  72.2496 287.8574 15.08846585 38558,6917.86,95.437,540.224,539.226,0.0
53864.0,STARLINK-4779,PAYLOAD,2023-05-21 07:37:49,15.08843377,7.03e-05,53.2162,197.781,88.5049,271.6023,7.7415e-05,9.45e-06,0.0,0 STARLINK-4779,1 53864U 22114AY  23141.31793900  .00000945  00000-0  77415-4 0  9995,2 53864  53.2162 197.7810 0000703  88.5049 271.6023 15.08843377 38080,6917.87,95.437,540.221,539.249,0.0
53864.0,STARLINK-4779,PAYLOAD,2023-05-21 09:13:13,15.08843696,7.06e-05,53.2163,197.4837,88.0722,272.0351,7.7985e-05,9.54e-06,0.0,0 STARLINK-4779,1 53864U 22114AY  23141.38417862  .00000954  00000-0  77985-4 0  9994,2 53864  53.2163 197.4837 0000706  88.0722 272.0351 15.08843696 38637,6917.869,95.437,540.222,539.246,0.0
53864.0,STARLINK-4779,PAYLOAD,2023-05-21 20:20:55,15.08838101,7.06e-05,53.216,195.4022,81.9176,278.1896,1.8462e-05,6e-08,0.0,0 STARLINK-4779,1 53864U 22114AY  23141.84786361  .00000006  00000-0  18462-4 0  9991,2 53864  53.2160 195.4022 0000706  81.9176 278.1896 15.08838101 38707,6917.886,95.438,540.24,539.263,0.0
53864.0,STARLINK-4779,PAYLOAD,2023-05-22 10:39:24,15.08830133,8e-05,53.2162,192.7261,93.0087,267.0997,-6.3823e-05,-1.303e-05,0.0,0 STARLINK-4779,1 53864U 22114AY  23142.44403308 -.00001303  00000-0 -63823-4 0  9999,2 53864  53.2162 192.7261 0000800  93.0087 267.0997 15.08830133 38250,6917.911,95.438,540.329,539.222,0.0
53864.0,STARLINK-4779,PAYLOAD,2023-05-22 12:14:47,15.08833312,8.4e-05,53.2175,192.4305,101.1196,258.9891,-7.9766e-05,-1.557e-05,0.0,0 STARLINK-4779,1 53864U 22114AY  23142.51027184 -.00001557  00000-0 -79766-4 0  9995,2 53864  53.2175 192.4305 0000840 101.1196 258.9891 15.08833312 38801,6917.901,95.438,540.347,539.185,0.0
53864.0,STARLINK-4779,PAYLOAD,2023-05-22 20:11:43,15.08834983,8.94e-05,53.2182,190.9444,86.0649,274.0445,-5.9723e-05,-1.238e-05,0.0,0 STARLINK-4779,1 53864U 22114AY  23142.84147180 -.00001238  00000-0 -59723-4 0  9997,2 53864  53.2182 190.9444 0000894  86.0649 274.0445 15.08834983 38853,6917.896,95.438,540.379,539.142,0.0
53864.0,STARLINK-4779,PAYLOAD,2023-05-23 10:30:10,15.08838315,7.53e-05,53.217,188.2671,91.8988,268.209,4.5931e-05,4.43e-06,0.0,0 STARLINK-4779,1 53864U 22114AY  23143.43762704  .00000443  00000-0  45931-4 0  9999,2 53864  53.2170 188.2671 0000753  91.8988 268.2090 15.08838315 38401,6917.886,95.438,540.271,539.23,0.0
53864.0,STARLINK-4779,PAYLOAD,2023-05-23 20:02:29,15.08835697,7.11e-05,53.217,186.4826,85.1458,274.9615,6.2642e-05,7.09e-06,0.0,0 STARLINK-4779,1 53864U 22114AY  23143.83506903  .00000709  00000-0  62642-4 0  9993,2 53864  53.2170 186.4826 0000711  85.1458 274.9615 15.08835697 39009,6917.894,95.438,540.25,539.267,0.0
53864.0,STARLINK-4779,PAYLOAD,2023-05-24 08:45:35,15.08835707,5.78e-05,53.2159,184.1025,84.951,275.1548,0.00010322,1.355e-05,0.0,0 STARLINK-4779,1 53864U 22114AY  23144.36498992  .00001355  00000-0  10322-3 0  9995,2 53864  53.2159 184.1025 0000578  84.9510 275.1548 15.08835707 39087,6917.894,95.438,540.158,539.359,0.0
53864.0,STARLINK-4779,PAYLOAD,2023-05-26 05:16:22,15.08843803,6.68e-05,53.2159,175.7754,77.4784,282.6282,6.5204e-05,7.5e-06,0.0,0 STARLINK-4779,1 53864U 22114AY  23146.21970766  .00000750  00000-0  65204-4 0  9993,2 53864  53.2159 175.7754 0000668  77.4784 282.6282 15.08843803 38827,6917.869,95.437,540.196,539.272,0.0
53864.0,STARLINK-4779,PAYLOAD,2023-05-26 11:37:55,15.08845269,7.22e-05,53.2162,174.5863,73.4504,286.6567,8.1681e-05,1.013e-05,0.0,0 STARLINK-4779,1 53864U 22114AY  23146.48466575  .00001013  00000-0  81681-4 0  9990,2 53864  53.2162 174.5863 0000722  73.4504 286.6567 15.08845269 39409,6917.864,95.437,540.229,539.23,0.0
53864.0,STARLINK-4779,PAYLOAD,2023-05-27 08:17:56,15.08838822,6.29e-05,53.2158,170.7183,71.8762,288.2299,5.6981e-06,-1.97e-06,0.0,0 STARLINK-4779,1 53864U 22114AY  23147.34579168 -.00000197  00000-0  56981-5 0  9998,2 53864  53.2158 170.7183 0000629  71.8762 288.2299 15.08838822 38991,6917.884,95.438,540.184,539.314,0.0
53864.0,STARLINK-4779,PAYLOAD,2023-05-28 06:33:20,15.08840775,6.76e-05,53.2159,166.5547,70.3992,289.7073,4.1728e-06,-2.21e-06,0.0,0 STARLINK-4779,1 53864U 22114AY  23148.27315087 -.00000221  00000-0  41728-5 0  9990,2 53864  53.2159 166.5547 0000676  70.3992 289.7073 15.08840775 39672,6917.878,95.438,540.211,539.275,0.0
53864.0,STARLINK-4779,PAYLOAD,2023-05-28 08:08:43,15.08840793,6.79e-05,53.216,166.2574,69.9436,290.163,3.8588e-06,-2.26e-06,0.0,0 STARLINK-4779,1 53864U 22114AY  23148.33939081 -.00000226  00000-0  38588-5 0  9998,2 53864  53.2160 166.2574 0000679  69.9436 290.1630 15.08840793 39687,6917.878,95.438,540.213,539.273,0.0
53864.0,STARLINK-4779,PAYLOAD,2023-05-29 04:48:44,15.08837205,6.77e-05,53.2158,162.3955,66.4829,293.6234,4.0602e-05,3.59e-06,0.0,0 STARLINK-4779,1 53864U 22114AY  23149.20051274  .00000359  00000-0  40602-4 0  9999,2 53864  53.2158 162.3955 0000677  66.4829 293.6234 15.08837205 39277,6917.889,95.438,540.222,539.286,0.0
53864.0,STARLINK-4779,PAYLOAD,2023-05-29 06:24:07,15.08837205,6.81e-05,53.2158,162.0981,66.3078,293.7985,4.0216e-05,3.52e-06,0.0,0 STARLINK-4779,1 53864U 22114AY  23149.26675286  .00000352  00000-0  40216-4 0  9994,2 53864  53.2158 162.0981 0000681  66.3078 293.7985 15.08837205 39828,6917.889,95.438,540.225,539.283,0.0
53864.0,STARLINK-4779,PAYLOAD,2023-05-29 17:31:49,15.08836299,7.04e-05,53.2157,160.0155,63.1377,296.9687,3.2213e-05,2.25e-06,0.0,0 STARLINK-4779,1 53864U 22114AY  23149.73043443  .00000225  00000-0  32213-4 0  9997,2 53864  53.2157 160.0155 0000704  63.1377 296.9687 15.08836299 39894,6917.892,95.438,540.244,539.27,0.0
53864.0,STARLINK-4779,PAYLOAD,2023-05-30 09:25:41,15.08835433,7.08e-05,53.2158,157.0425,70.3479,289.7589,1.4078e-05,-6.4e-07,0.0,0 STARLINK-4779,1 53864U 22114AY  23150.39283723 -.00000064  00000-0  14078-4 0  9999,2 53864  53.2158 157.0425 0000708  70.3479 289.7589 15.08835433 39450,6917.894,95.438,540.249,539.27,0.0
53864.0,STARLINK-4779,PAYLOAD,2023-05-31 09:16:27,15.08840762,7.64e-05,53.2157,152.5813,62.0397,298.0673,5.606e-05,6.05e-06,0.0,0 STARLINK-4779,1 53864U 22114AY  23151.38643377  .00000605  00000-0  56060-4 0  9991,2 53864  53.2157 152.5813 0000764  62.0397 298.0673 15.08840762 40145,6917.878,95.438,540.272,539.215,0.0
53864.0,STARLINK-4779,PAYLOAD,2023-05-31 17:13:23,15.08838105,7.55e-05,53.2157,151.0946,62.9063,297.2007,3.8674e-05,3.28e-06,0.0,0 STARLINK-4779,1 53864U 22114AY  23151.71763619  .00000328  00000-0  38674-4 0  9993,2 53864  53.2157 151.0946 0000755  62.9063 297.2007 15.08838105 39659,6917.886,95.438,540.273,539.229,0.0
